[{"OBJECT_NAME":"STARLINK-5626","OBJECT_ID":"2023-014AW","EPOCH":"2026-03-09T12:25:32.220192","MEAN_MOTION":14.98329947,"ECCENTRICITY":0.00033054,"INCLINATION":69.9993,"RA_OF_ASC_NODE":104.8659,"ARG_OF_PERICENTER":269.0339,"MEAN_ANOMALY":91.0442,"EPHEMERIS_TYPE":0,"CLASSIFICATION_TYPE":"U","NORAD_CAT_ID":55435,"ELEMENT_SET_NO":999,"REV_AT_EPOCH":17104,"BSTAR":-2.0779426e-5,"MEAN_MOTION_DOT":-3.41e-6,"MEAN_MOTION_DDOT":0},{"OBJECT_NAME":"KORSAT-7","OBJECT_ID":"2023-185B","EPOCH":"2026-03-09T23:44:55.136256","MEAN_MOTION":15.00898391,"ECCENTRICITY":0.00224341,"INCLINATION":97.6243,"RA_OF_ASC_NODE":135.089,"ARG_OF_PERICENTER":307.6562,"MEAN_ANOMALY":52.2627,"EPHEMERIS_TYPE":0,"CLASSIFICATION_TYPE":"U","NORAD_CAT_ID":58463,"ELEMENT_SET_NO":999,"REV_AT_EPOCH":12440,"BSTAR":0.00023536002,"MEAN_MOTION_DOT":2.951e-5,"MEAN_MOTION_DDOT":0}]
